CCSDS_OEM_VERS = 1.0
CREATION_DATE  = 2017-05-11T11:21:27
ORIGINATOR     = GMAT USER

META_START
OBJECT_NAME          = MOPSSat_alt_35785_km_RAAN_90_146
OBJECT_ID            = SatId
CENTER_NAME          = Earth
REF_FRAME            = EME2000
TIME_SYSTEM          = UTC
START_TIME           = 2017-01-01T00:00:00.000
USEABLE_START_TIME   = 2017-01-01T00:00:00.000
USEABLE_STOP_TIME    = 2017-01-02T00:00:00.000
STOP_TIME            = 2017-01-02T00:00:00.000
INTERPOLATION        = Lagrange
INTERPOLATION_DEGREE = 7 
META_STOP


                                                                                   

2017-01-01T15:16:40.000   2.037673012393336e+04  -5.605596002737197e+04  -1.622335448241426e+00   1.562391145356525e+00   1.212403838505944e+00  -1.266965122119696e-04
2017-01-01T15:16:50.000   2.039235212148909e+04  -5.604383072362093e+04  -1.623602575313290e+00   1.562008243070983e+00   1.213456885025820e+00  -1.267288923812663e-04
2017-01-01T15:17:00.000   2.040797028793508e+04  -5.603169088896635e+04  -1.624870026022762e+00   1.561624930393896e+00   1.214510024653415e+00  -1.267612402942366e-04
2017-01-01T15:17:10.000   2.042358461910533e+04  -5.601954052252395e+04  -1.626137800042117e+00   1.561241207070573e+00   1.215563257457020e+00  -1.267935559049158e-04
2017-01-01T15:17:20.000   2.043919511084952e+04  -5.600737962339527e+04  -1.627405897044623e+00   1.560857072845542e+00   1.216616583506104e+00  -1.268258391673360e-04
2017-01-01T15:17:30.000   2.045480175905118e+04  -5.599520819065249e+04  -1.628674316706055e+00   1.560472527462073e+00   1.217670002872566e+00  -1.268580900355572e-04
2017-01-01T15:17:40.000   2.047040455958037e+04  -5.598302622337593e+04  -1.629943058700832e+00   1.560087570663357e+00   1.218723515627527e+00  -1.268903084635720e-04
2017-01-01T15:17:50.000   2.048600350849889e+04  -5.597083372049226e+04  -1.631212122718765e+00   1.559702202187390e+00   1.219777121855227e+00  -1.269224944057225e-04
2017-01-01T15:18:00.000   2.050159860181152e+04  -5.595863068097018e+04  -1.632481508444769e+00   1.559316421773161e+00   1.220830821636187e+00  -1.269546478161935e-04
2017-01-01T15:18:10.000   2.051718983556006e+04  -5.594641710374663e+04  -1.633751215566521e+00   1.558930229158320e+00   1.221884615053572e+00  -1.269867686492038e-04
2017-01-01T15:18:20.000   2.053277720545880e+04  -5.593419298801223e+04  -1.635021243744786e+00   1.558543624088197e+00   1.222938502168555e+00  -1.270188568582599e-04
2017-01-01T15:18:30.000   2.054836070725906e+04  -5.592195833292585e+04  -1.636291592643089e+00   1.558156606306786e+00   1.223992483044953e+00  -1.270509123969030e-04
2017-01-01T15:18:40.000   2.056394033665508e+04  -5.590971313768829e+04  -1.637562261920062e+00   1.557769175559067e+00   1.225046557742864e+00  -1.270829352185157e-04
2017-01-01T15:18:50.000   2.057951608953319e+04  -5.589745740134782e+04  -1.638833251249692e+00   1.557381331584862e+00   1.226100726335496e+00  -1.271149252768339e-04
2017-01-01T15:19:00.000   2.059508796176613e+04  -5.588519112296042e+04  -1.640104560304616e+00   1.556993074123901e+00   1.227154988895279e+00  -1.271468825255238e-04
2017-01-01T15:19:10.000   2.061065594926045e+04  -5.587291430155287e+04  -1.641376188759971e+00   1.556604402914650e+00   1.228209345497072e+00  -1.271788069182801e-04
2017-01-01T15:19:20.000   2.062622004793793e+04  -5.586062693613644e+04  -1.642648136291923e+00   1.556215317694742e+00   1.229263796216923e+00  -1.272106984087877e-04
2017-01-01T15:19:30.000   2.064178025372704e+04  -5.584832902571443e+04  -1.643920402576929e+00   1.555825818201214e+00   1.230318341131474e+00  -1.272425569507040e-04
2017-01-01T15:19:40.000   2.065733656254437e+04  -5.583602056929671e+04  -1.645192987290221e+00   1.555435904170977e+00   1.231372980316705e+00  -1.272743824976205e-04
2017-01-01T15:19:50.000   2.067288897028562e+04  -5.582370156590621e+04  -1.646465890105109e+00   1.555045575341006e+00   1.232427713847340e+00  -1.273061750030424e-04
2017-01-01T15:20:00.000   2.068843747280766e+04  -5.581137201459392e+04  -1.647739110691459e+00   1.554654831448831e+00   1.233482541795604e+00  -1.273379344203536e-04
2017-01-01T15:20:10.000   2.070398206597553e+04  -5.579903191440136e+04  -1.649012648719572e+00   1.554263672231334e+00   1.234537464234429e+00  -1.273696607029132e-04
2017-01-01T15:20:20.000   2.071952274545809e+04  -5.578668126452417e+04  -1.650286503843369e+00   1.553872097429946e+00   1.235592481223547e+00  -1.274013538036403e-04
2017-01-01T15:20:30.000   2.073505950697579e+04  -5.577432006411387e+04  -1.651560675720756e+00   1.553480106784362e+00   1.236647592826337e+00  -1.274330136755174e-04
2017-01-01T15:20:40.000   2.075059234620856e+04  -5.576194831235163e+04  -1.652835164006059e+00   1.553087700034867e+00   1.237702799103563e+00  -1.274646402714022e-04
2017-01-01T15:20:50.000   2.076612125915292e+04  -5.574956600816362e+04  -1.654109968379330e+00   1.552694876913323e+00   1.238758100137647e+00  -1.274962335447566e-04
2017-01-01T15:21:00.000   2.078164624176580e+04  -5.573717315050486e+04  -1.655385088517114e+00   1.552301637152157e+00   1.239813496008455e+00  -1.275277934489188e-04
2017-01-01T15:21:10.000   2.079716729004516e+04  -5.572476973829488e+04  -1.656660524099064e+00   1.551907980482332e+00   1.240868986798782e+00  -1.275593199372697e-04
2017-01-01T15:21:20.000   2.081268439982851e+04  -5.571235577057715e+04  -1.657936274791469e+00   1.551513906638389e+00   1.241924572580699e+00  -1.275908129628166e-04
2017-01-01T15:21:30.000   2.082819756694272e+04  -5.569993124640120e+04  -1.659212340259474e+00   1.551119415354715e+00   1.242980253425681e+00  -1.276222724785047e-04
2017-01-01T15:21:40.000   2.084370678720374e+04  -5.568749616482201e+04  -1.660488720167092e+00   1.550724506365527e+00   1.244036029404620e+00  -1.276536984372132e-04
2017-01-01T15:21:50.000   2.085921205626805e+04  -5.567505052502111e+04  -1.661765414164892e+00   1.550329179408718e+00   1.245091900577656e+00  -1.276850907914620e-04
2017-01-01T15:22:00.000   2.087471336983299e+04  -5.566259432614395e+04  -1.663042421906567e+00   1.549933434220695e+00   1.246147867007861e+00  -1.277164494938104e-04
2017-01-01T15:22:10.000   2.089021072355776e+04  -5.565012756736395e+04  -1.664319743042415e+00   1.549537270538401e+00   1.247203928755856e+00  -1.277477744966991e-04
2017-01-01T15:22:20.000   2.090570411341319e+04  -5.563765024760115e+04  -1.665597377248155e+00   1.549140688090379e+00   1.248260085903632e+00  -1.277790657531524e-04
2017-01-01T15:22:30.000   2.092119353533191e+04  -5.562516236580333e+04  -1.666875324196114e+00   1.548743686605710e+00   1.249316338530730e+00  -1.278103232160760e-04
2017-01-01T15:22:40.000   2.093667898528755e+04  -5.561266392088265e+04  -1.668153583561731e+00   1.548346265811992e+00   1.250372686719618e+00  -1.278415468384148e-04
2017-01-01T15:22:50.000   2.095216045909357e+04  -5.560015491187603e+04  -1.669432155007047e+00   1.547948425440437e+00   1.251429130542028e+00  -1.278727365727498e-04
2017-01-01T15:23:00.000   2.096763795255277e+04  -5.558763533782664e+04  -1.670711038192951e+00   1.547550165222101e+00   1.252485670069102e+00  -1.279038923715971e-04
2017-01-01T15:23:10.000   2.098311146145705e+04  -5.557510519778309e+04  -1.671990232779196e+00   1.547151484887867e+00   1.253542305371389e+00  -1.279350141874083e-04
2017-01-01T15:23:20.000   2.099858098143914e+04  -5.556256449092144e+04  -1.673269738412057e+00   1.546752384172329e+00   1.254599036508678e+00  -1.279661019722712e-04
2017-01-01T15:23:30.000   2.101404650817250e+04  -5.555001321638157e+04  -1.674549554740943e+00   1.546352862808577e+00   1.255655863543695e+00  -1.279971556783127e-04
2017-01-01T15:23:40.000   2.102950803729105e+04  -5.553745137333267e+04  -1.675829681411722e+00   1.545952920530284e+00   1.256712786536603e+00  -1.280281752575369e-04
2017-01-01T15:23:50.000   2.104496556474383e+04  -5.552487896068505e+04  -1.677110118096106e+00   1.545552557062531e+00   1.257769805569256e+00  -1.280591606625406e-04
2017-01-01T15:24:00.000   2.106041908643942e+04  -5.551229597737901e+04  -1.678390864462199e+00   1.545151772130996e+00   1.258826920720883e+00  -1.280901118457959e-04
2017-01-01T15:24:10.000   2.107586859833769e+04  -5.549970242231026e+04  -1.679671920182098e+00   1.544750565459592e+00   1.259884132074367e+00  -1.281210287598355e-04
2017-01-01T15:24:20.000   2.109131409620271e+04  -5.548709829452994e+04  -1.680953284911470e+00   1.544348936776819e+00   1.260941439699373e+00  -1.281519113567510e-04
2017-01-01T15:24:30.000   2.110675557580678e+04  -5.547448359307987e+04  -1.682234958306396e+00   1.543946885810528e+00   1.261998843666267e+00  -1.281827595886083e-04
2017-01-01T15:24:40.000   2.112219303288480e+04  -5.546185831702916e+04  -1.683516940019617e+00   1.543544412289083e+00   1.263056344043012e+00  -1.282135734073544e-04
2017-01-01T15:24:50.000   2.113762646314697e+04  -5.544922246546504e+04  -1.684799229701529e+00   1.543141515941077e+00   1.264113940895999e+00  -1.282443527648483e-04
2017-01-01T15:25:00.000   2.115305586229392e+04  -5.543657603747946e+04  -1.686081827001483e+00   1.542738196494902e+00   1.265171634291118e+00  -1.282750976128859e-04
2017-01-01T15:25:10.000   2.116848122602227e+04  -5.542391903216489e+04  -1.687364731568240e+00   1.542334453678602e+00   1.266229424294126e+00  -1.283058079032120e-04
2017-01-01T15:25:20.000   2.118390255007991e+04  -5.541125144856916e+04  -1.688647943054552e+00   1.541930287218452e+00   1.267287310974433e+00  -1.283364835876282e-04
2017-01-01T15:25:30.000   2.119931983022909e+04  -5.539857328572529e+04  -1.689931461114114e+00   1.541525696839896e+00   1.268345294402584e+00  -1.283671246179211e-04
2017-01-01T15:25:40.000   2.121473306224647e+04  -5.538588454265164e+04  -1.691215285401562e+00   1.541120682267549e+00   1.269403374650257e+00  -1.283977309458621e-04
